{
  "links" : {
    "next" : "https://api.nasa.gov/neo/rest/v1/feed?start_date=2000-01-23&end_date=2000-01-23&detailed=true&api_key=t0TVs3DtDT2H8Oy2Zy8m2eVrNsAVKAexjcZXUckd",
    "prev" : "https://api.nasa.gov/neo/rest/v1/feed?start_date=2000-01-21&end_date=2000-01-21&detailed=true&api_key=t0TVs3DtDT2H8Oy2Zy8m2eVrNsAVKAexjcZXUckd",
    "self" : "https://api.nasa.gov/neo/rest/v1/feed?start_date=2000-01-22&end_date=2000-01-22&detailed=true&api_key=t0TVs3DtDT2H8Oy2Zy8m2eVrNsAVKAexjcZXUckd"
  },
  "element_count" : 4,
  "near_earth_objects" : {
    "2000-01-22" : [ {
      "links" : {
        "self" : "https://api.nasa.gov/neo/rest/v1/neo/3034813?api_key=t0TVs3DtDT2H8Oy2Zy8m2eVrNsAVKAexjcZXUckd"
      },
      "neo_reference_id" : "3034813",
      "name" : "(2000 CN33)",
      "nasa_jpl_url" : "http://ssd.jpl.nasa.gov/sbdb.cgi?sstr=3034813",
      "absolute_magnitude_h" : 19.2,
      "estimated_diameter" : {
        "kilometers" : {
          "estimated_diameter_min" : 0.3841978911,
          "estimated_diameter_max" : 0.8590926012
        },
        "meters" : {
          "estimated_diameter_min" : 384.1978910643,
          "estimated_diameter_max" : 859.0926012318
        },
        "miles" : {
          "estimated_diameter_min" : 0.2387294278,
          "estimated_diameter_max" : 0.5338152287
        },
        "feet" : {
          "estimated_diameter_min" : 1260.4918089193,
          "estimated_diameter_max" : 2818.5453698252
        }
      },
      "is_potentially_hazardous_asteroid" : false,
      "close_approach_data" : [ {
        "close_approach_date" : "2000-01-22",
        "epoch_date_close_approach" : 948528000000,
        "relative_velocity" : {
          "kilometers_per_second" : "11.861652265",
          "kilometers_per_hour" : "42701.9481541141",
          "miles_per_hour" : "26533.3299516494"
        },
        "miss_distance" : {
          "astronomical" : "0.1259438594",
          "lunar" : "48.9921607971",
          "kilometers" : "18840932",
          "miles" : "11707213"
        },
        "orbiting_body" : "Earth"
      } ],
      "orbital_data" : {
        "orbit_id" : "11",
        "orbit_determination_date" : "2017-04-06 09:17:07",
        "orbit_uncertainty" : "6",
        "minimum_orbit_intersection" : ".096756",
        "jupiter_tisserand_invariant" : "3.091",
        "epoch_osculation" : "2458000.5",
        "eccentricity" : ".5861472676184907",
        "semi_major_axis" : "2.602170931402528",
        "inclination" : "17.68279611033956",
        "ascending_node_longitude" : "129.5938410069911",
        "orbital_period" : "1533.211819338846",
        "perihelion_distance" : "1.076915550084673",
        "perihelion_argument" : "351.5341788167785",
        "aphelion_distance" : "4.127426312720382",
        "perihelion_time" : "2457687.691629728987",
        "mean_anomaly" : "73.44778580308945",
        "mean_motion" : ".2348012162828485",
        "equinox" : "J2000"
      }
    }, {
      "links" : {
        "self" : "https://api.nasa.gov/neo/rest/v1/neo/3102681?api_key=t0TVs3DtDT2H8Oy2Zy8m2eVrNsAVKAexjcZXUckd"
      },
      "neo_reference_id" : "3102681",
      "name" : "(2001 XU4)",
      "nasa_jpl_url" : "http://ssd.jpl.nasa.gov/sbdb.cgi?sstr=3102681",
      "absolute_magnitude_h" : 23.8,
      "estimated_diameter" : {
        "kilometers" : {
          "estimated_diameter_min" : 0.046190746,
          "estimated_diameter_max" : 0.1032856481
        },
        "meters" : {
          "estimated_diameter_min" : 46.1907460282,
          "estimated_diameter_max" : 103.2856480504
        },
        "miles" : {
          "estimated_diameter_min" : 0.0287015901,
          "estimated_diameter_max" : 0.0641787064
        },
        "feet" : {
          "estimated_diameter_min" : 151.544447199,
          "estimated_diameter_max" : 338.8636855496
        }
      },
      "is_potentially_hazardous_asteroid" : false,
      "close_approach_data" : [ {
        "close_approach_date" : "2000-01-22",
        "epoch_date_close_approach" : 948528000000,
        "relative_velocity" : {
          "kilometers_per_second" : "6.6710042683",
          "kilometers_per_hour" : "24015.6153657864",
          "miles_per_hour" : "14922.3694477021"
        },
        "miss_distance" : {
          "astronomical" : "0.2737264113",
          "lunar" : "106.4795684814",
          "kilometers" : "40948888",
          "miles" : "25444460"
        },
        "orbiting_body" : "Earth"
      } ],
      "orbital_data" : {
        "orbit_id" : "8",
        "orbit_determination_date" : "2017-04-06 09:15:45",
        "orbit_uncertainty" : "7",
        "minimum_orbit_intersection" : ".0525666",
        "jupiter_tisserand_invariant" : "5.957",
        "epoch_osculation" : "2458000.5",
        "eccentricity" : ".1635106960207956",
        "semi_major_axis" : "1.019301915938118",
        "inclination" : "12.67764539570955",
        "ascending_node_longitude" : "259.3371355643689",
        "orbital_period" : "375.8830028430628",
        "perihelion_distance" : ".8526351502077463",
        "perihelion_argument" : "69.8057754826885",
        "aphelion_distance" : "1.185968681668491",
        "perihelion_time" : "2458174.038402792111",
        "mean_anomaly" : "193.7944931464655",
        "mean_motion" : ".957744822929133",
        "equinox" : "J2000"
      }
    }, {
      "links" : {
        "self" : "https://api.nasa.gov/neo/rest/v1/neo/3767015?api_key=t0TVs3DtDT2H8Oy2Zy8m2eVrNsAVKAexjcZXUckd"
      },
      "neo_reference_id" : "3767015",
      "name" : "(2017 BZ6)",
      "nasa_jpl_url" : "http://ssd.jpl.nasa.gov/sbdb.cgi?sstr=3767015",
      "absolute_magnitude_h" : 26.1,
      "estimated_diameter" : {
        "kilometers" : {
          "estimated_diameter_min" : 0.0160160338,
          "estimated_diameter_max" : 0.0358129403
        },
        "meters" : {
          "estimated_diameter_min" : 16.0160337979,
          "estimated_diameter_max" : 35.8129403019
        },
        "miles" : {
          "estimated_diameter_min" : 0.0099518989,
          "estimated_diameter_max" : 0.0222531225
        },
        "feet" : {
          "estimated_diameter_min" : 52.5460443254,
          "estimated_diameter_max" : 117.4965270602
        }
      },
      "is_potentially_hazardous_asteroid" : false,
      "close_approach_data" : [ {
        "close_approach_date" : "2000-01-22",
        "epoch_date_close_approach" : 948528000000,
        "relative_velocity" : {
          "kilometers_per_second" : "5.6110921528",
          "kilometers_per_hour" : "20199.9317502402",
          "miles_per_hour" : "12551.4520366979"
        },
        "miss_distance" : {
          "astronomical" : "0.1073588978",
          "lunar" : "41.7626113892",
          "kilometers" : "16060662",
          "miles" : "9979633"
        },
        "orbiting_body" : "Earth"
      } ],
      "orbital_data" : {
        "orbit_id" : "13",
        "orbit_determination_date" : "2017-07-31 06:20:48",
        "orbit_uncertainty" : "4",
        "minimum_orbit_intersection" : ".0392348",
        "jupiter_tisserand_invariant" : "5.698",
        "epoch_osculation" : "2458000.5",
        "eccentricity" : ".09316376522212844",
        "semi_major_axis" : "1.085621626559302",
        "inclination" : "5.825698101617188",
        "ascending_node_longitude" : "315.0842739497896",
        "orbital_period" : "413.1579903355006",
        "perihelion_distance" : ".9844810282224664",
        "perihelion_argument" : "117.5566454458557",
        "aphelion_distance" : "1.186762224896138",
        "perihelion_time" : "2458140.153766232048",
        "mean_anomaly" : "238.3144535030972",
        "mean_motion" : ".8713373780031842",
        "equinox" : "J2000"
      }
    }, {
      "links" : {
        "self" : "https://api.nasa.gov/neo/rest/v1/neo/3727039?api_key=t0TVs3DtDT2H8Oy2Zy8m2eVrNsAVKAexjcZXUckd"
      },
      "neo_reference_id" : "3727039",
      "name" : "(2015 RN35)",
      "nasa_jpl_url" : "http://ssd.jpl.nasa.gov/sbdb.cgi?sstr=3727039",
      "absolute_magnitude_h" : 23.1,
      "estimated_diameter" : {
        "kilometers" : {
          "estimated_diameter_min" : 0.063760979,
          "estimated_diameter_max" : 0.1425738833
        },
        "meters" : {
          "estimated_diameter_min" : 63.7609789875,
          "estimated_diameter_max" : 142.5738833281
        },
        "miles" : {
          "estimated_diameter_min" : 0.0396192233,
          "estimated_diameter_max" : 0.0885912765
        },
        "feet" : {
          "estimated_diameter_min" : 209.1895703015,
          "estimated_diameter_max" : 467.7620993781
        }
      },
      "is_potentially_hazardous_asteroid" : false,
      "close_approach_data" : [ {
        "close_approach_date" : "2000-01-22",
        "epoch_date_close_approach" : 948528000000,
        "relative_velocity" : {
          "kilometers_per_second" : "19.5985767831",
          "kilometers_per_hour" : "70554.8764191283",
          "miles_per_hour" : "43840.0564060967"
        },
        "miss_distance" : {
          "astronomical" : "0.4480680166",
          "lunar" : "174.2984619141",
          "kilometers" : "67030024",
          "miles" : "41650524"
        },
        "orbiting_body" : "Earth"
      } ],
      "orbital_data" : {
        "orbit_id" : "30",
        "orbit_determination_date" : "2017-09-02 06:19:06",
        "orbit_uncertainty" : "4",
        "minimum_orbit_intersection" : ".000254181",
        "jupiter_tisserand_invariant" : "4.561",
        "epoch_osculation" : "2458000.5",
        "eccentricity" : ".3419015618079722",
        "semi_major_axis" : "1.459238472639744",
        "inclination" : ".2598248878457333",
        "ascending_node_longitude" : "209.4568960403714",
        "orbital_period" : "643.8546458203414",
        "perihelion_distance" : ".9603225597939359",
        "perihelion_argument" : "207.2732523014281",
        "aphelion_distance" : "1.958154385485553",
        "perihelion_time" : "2457975.329820469385",
        "mean_anomaly" : "14.0734631486215",
        "mean_motion" : ".5591324102994094",
        "equinox" : "J2000"
      }
    } ]
  }
}